ONEWEB-0435             
1 51632U 22012L   24323.84184225  .00000139  00000+0  36224-3 0  9994
2 51632  87.8892 150.8489 0001799  73.8417 286.2908 13.10368762135249
ONEWEB-0436             
1 51633U 22012M   24322.93262836  .00000003  00000+0 -24510-4 0  9996
2 51633  87.9071 120.6469 0001517  83.6410 276.4894 13.17648561137795
ONEWEB-0438             
1 51634U 22012N   24323.82523189  .00000704  00000+0  19795-2 0  9991
2 51634  87.8893 150.8525 0001618  94.9549 265.1763 13.10375298135284
ONEWEB-0439             
1 51635U 22012P   24323.06502314  .00000559  00000+0  15646-2 0  9994
2 51635  87.8893 150.9893 0001581  86.0439 274.0869 13.10371273133871
ONEWEB-0442             
1 51636U 22012Q   24323.00098039  .00000026  00000+0  32660-4 0  9999
2 51636  87.9078 120.6735 0001575 118.9165 241.2124 13.17648462137790
ONEWEB-0443             
1 51637U 22012R   24322.94444351  .00000038  00000+0  65806-4 0  9995
2 51637  87.9077 120.6953 0001915  97.4700 262.6649 13.17648481137831
ONEWEB-0444             
1 51638U 22012S   24323.51318330  .00000599  00000+0  16798-2 0  9993
2 51638  87.8893 150.9145 0001689  82.6751 277.4568 13.10374631133944
ONEWEB-0445             
1 51639U 22012T   24323.53475052  .00000146  00000+0  38329-3 0  9994
2 51639  87.8881 150.8751 0001350  93.6721 266.4560 13.10368555133957
